<?xml version="1.0" encoding="UTF-8"?>
<ndm xmlns:xsi="http://www.w3.org/2001/XMLSchema-instance" xsi:noNamespaceSchemaLocation="https://sanaregistry.org/r/ndmxml_unqualified/ndmxml-2.0.0-master-2.0.xsd">
<omm id="CCSDS_OMM_VERS" version="2.0">
<header><CREATION_DATE/><ORIGINATOR/></header><body><segment><metadata><OBJECT_NAME>ONEWEB-0415</OBJECT_NAME><OBJECT_ID>2022-012C</OBJECT_ID><CENTER_NAME>EARTH</CENTER_NAME><REF_FRAME>TEME</REF_FRAME><TIME_SYSTEM>UTC</TIME_SYSTEM><MEAN_ELEMENT_THEORY>SGP4</MEAN_ELEMENT_THEORY></metadata><data><meanElements><EPOCH>2025-01-01T15:18:29.590272</EPOCH><MEAN_MOTION>13.10374100</MEAN_MOTION><ECCENTRICITY>.000161</ECCENTRICITY><INCLINATION>87.8905</INCLINATION><RA_OF_ASC_NODE>142.1612</RA_OF_ASC_NODE><ARG_OF_PERICENTER>113.5701</ARG_OF_PERICENTER><MEAN_ANOMALY>246.5595</MEAN_ANOMALY></meanElements><tleParameters><EPHEMERIS_TYPE>0</EPHEMERIS_TYPE><CLASSIFICATION_TYPE>U</CLASSIFICATION_TYPE><NORAD_CAT_ID>51624</NORAD_CAT_ID><ELEMENT_SET_NO>999</ELEMENT_SET_NO><REV_AT_EPOCH>13967</REV_AT_EPOCH><BSTAR>-.18431E-2</BSTAR><MEAN_MOTION_DOT>-.631E-5</MEAN_MOTION_DOT><MEAN_MOTION_DDOT>0</MEAN_MOTION_DDOT></tleParameters></data></segment></body></omm>
<omm id="CCSDS_OMM_VERS" version="2.0">
<header><CREATION_DATE/><ORIGINATOR/></header><body><segment><metadata><OBJECT_NAME>ONEWEB-0416</OBJECT_NAME><OBJECT_ID>2022-012D</OBJECT_ID><CENTER_NAME>EARTH</CENTER_NAME><REF_FRAME>TEME</REF_FRAME><TIME_SYSTEM>UTC</TIME_SYSTEM><MEAN_ELEMENT_THEORY>SGP4</MEAN_ELEMENT_THEORY></metadata><data><meanElements><EPOCH>2025-01-01T15:35:13.001856</EPOCH><MEAN_MOTION>13.10375616</MEAN_MOTION><ECCENTRICITY>.0001516</ECCENTRICITY><INCLINATION>87.8913</INCLINATION><RA_OF_ASC_NODE>142.1654</RA_OF_ASC_NODE><ARG_OF_PERICENTER>102.7266</ARG_OF_PERICENTER><MEAN_ANOMALY>257.4031</MEAN_ANOMALY></meanElements><tleParameters><EPHEMERIS_TYPE>0</EPHEMERIS_TYPE><CLASSIFICATION_TYPE>U</CLASSIFICATION_TYPE><NORAD_CAT_ID>51625</NORAD_CAT_ID><ELEMENT_SET_NO>999</ELEMENT_SET_NO><REV_AT_EPOCH>13971</REV_AT_EPOCH><BSTAR>-.12226E-2</BSTAR><MEAN_MOTION_DOT>-.414E-5</MEAN_MOTION_DOT><MEAN_MOTION_DDOT>0</MEAN_MOTION_DDOT></tleParameters></data></segment></body></omm>
<omm id="CCSDS_OMM_VERS" version="2.0">
<header><CREATION_DATE/><ORIGINATOR/></header><body><segment><metadata><OBJECT_NAME>ONEWEB-0422</OBJECT_NAME><OBJECT_ID>2022-012E</OBJECT_ID><CENTER_NAME>EARTH</CENTER_NAME><REF_FRAME>TEME</REF_FRAME><TIME_SYSTEM>UTC</TIME_SYSTEM><MEAN_ELEMENT_THEORY>SGP4</MEAN_ELEMENT_THEORY></metadata><data><meanElements><EPOCH>2025-01-02T06:45:39.633408</EPOCH><MEAN_MOTION>13.17651154</MEAN_MOTION><ECCENTRICITY>.0001065</ECCENTRICITY><INCLINATION>87.9097</INCLINATION><RA_OF_ASC_NODE>111.6202</RA_OF_ASC_NODE><ARG_OF_PERICENTER>120.9009</ARG_OF_PERICENTER><MEAN_ANOMALY>239.2227</MEAN_ANOMALY></meanElements><tleParameters><EPHEMERIS_TYPE>0</EPHEMERIS_TYPE><CLASSIFICATION_TYPE>U</CLASSIFICATION_TYPE><NORAD_CAT_ID>51626</NORAD_CAT_ID><ELEMENT_SET_NO>999</ELEMENT_SET_NO><REV_AT_EPOCH>14517</REV_AT_EPOCH><BSTAR>-.89837E-3</BSTAR><MEAN_MOTION_DOT>-.336E-5</MEAN_MOTION_DOT><MEAN_MOTION_DDOT>0</MEAN_MOTION_DDOT></tleParameters></data></segment></body></omm>
<omm id="CCSDS_OMM_VERS" version="2.0">
<header><CREATION_DATE/><ORIGINATOR/></header><body><segment><metadata><OBJECT_NAME>ONEWEB-0423</OBJECT_NAME><OBJECT_ID>2022-012F</OBJECT_ID><CENTER_NAME>EARTH</CENTER_NAME><REF_FRAME>TEME</REF_FRAME><TIME_SYSTEM>UTC</TIME_SYSTEM><MEAN_ELEMENT_THEORY>SGP4</MEAN_ELEMENT_THEORY></metadata><data><meanElements><EPOCH>2025-01-02T06:35:56.156928</EPOCH><MEAN_MOTION>13.17649584</MEAN_MOTION><ECCENTRICITY>.000147</ECCENTRICITY><INCLINATION>87.9107</INCLINATION><RA_OF_ASC_NODE>111.6256</RA_OF_ASC_NODE><ARG_OF_PERICENTER>102.5779</ARG_OF_PERICENTER><MEAN_ANOMALY>257.5517</MEAN_ANOMALY></meanElements><tleParameters><EPHEMERIS_TYPE>0</EPHEMERIS_TYPE><CLASSIFICATION_TYPE>U</CLASSIFICATION_TYPE><NORAD_CAT_ID>51627</NORAD_CAT_ID><ELEMENT_SET_NO>999</ELEMENT_SET_NO><REV_AT_EPOCH>14378</REV_AT_EPOCH><BSTAR>.24908E-3</BSTAR><MEAN_MOTION_DOT>.11E-5</MEAN_MOTION_DOT><MEAN_MOTION_DDOT>0</MEAN_MOTION_DDOT></tleParameters></data></segment></body></omm>
<omm id="CCSDS_OMM_VERS" version="2.0">
<header><CREATION_DATE/><ORIGINATOR/></header><body><segment><metadata><OBJECT_NAME>ONEWEB-0425</OBJECT_NAME><OBJECT_ID>2022-012G</OBJECT_ID><CENTER_NAME>EARTH</CENTER_NAME><REF_FRAME>TEME</REF_FRAME><TIME_SYSTEM>UTC</TIME_SYSTEM><MEAN_ELEMENT_THEORY>SGP4</MEAN_ELEMENT_THEORY></metadata><data><meanElements><EPOCH>2025-01-01T08:29:45.542112</EPOCH><MEAN_MOTION>13.10375010</MEAN_MOTION><ECCENTRICITY>.0001633</ECCENTRICITY><INCLINATION>87.8912</INCLINATION><RA_OF_ASC_NODE>142.2006</RA_OF_ASC_NODE><ARG_OF_PERICENTER>87.3293</ARG_OF_PERICENTER><MEAN_ANOMALY>272.8021</MEAN_ANOMALY></meanElements><tleParameters><EPHEMERIS_TYPE>0</EPHEMERIS_TYPE><CLASSIFICATION_TYPE>U</CLASSIFICATION_TYPE><NORAD_CAT_ID>51628</NORAD_CAT_ID><ELEMENT_SET_NO>999</ELEMENT_SET_NO><REV_AT_EPOCH>13967</REV_AT_EPOCH><BSTAR>-.15483E-3</BSTAR><MEAN_MOTION_DOT>-.41E-6</MEAN_MOTION_DOT><MEAN_MOTION_DDOT>0</MEAN_MOTION_DDOT></tleParameters></data></segment></body></omm>
<omm id="CCSDS_OMM_VERS" version="2.0">
<header><CREATION_DATE/><ORIGINATOR/></header><body><segment><metadata><OBJECT_NAME>ONEWEB-0428</OBJECT_NAME><OBJECT_ID>2022-012H</OBJECT_ID><CENTER_NAME>EARTH</CENTER_NAME><REF_FRAME>TEME</REF_FRAME><TIME_SYSTEM>UTC</TIME_SYSTEM><MEAN_ELEMENT_THEORY>SGP4</MEAN_ELEMENT_THEORY></metadata><data><meanElements><EPOCH>2025-01-01T15:20:51.975744</EPOCH><MEAN_MOTION>13.10373739</MEAN_MOTION><ECCENTRICITY>.0001333</ECCENTRICITY><INCLINATION>87.8908</INCLINATION><RA_OF_ASC_NODE>142.1631</RA_OF_ASC_NODE><ARG_OF_PERICENTER>111.1971</ARG_OF_PERICENTER><MEAN_ANOMALY>248.9299</MEAN_ANOMALY></meanElements><tleParameters><EPHEMERIS_TYPE>0</EPHEMERIS_TYPE><CLASSIFICATION_TYPE>U</CLASSIFICATION_TYPE><NORAD_CAT_ID>51629</NORAD_CAT_ID><ELEMENT_SET_NO>999</ELEMENT_SET_NO><REV_AT_EPOCH>13967</REV_AT_EPOCH><BSTAR>-.17608E-2</BSTAR><MEAN_MOTION_DOT>-.602E-5</MEAN_MOTION_DOT><MEAN_MOTION_DDOT>0</MEAN_MOTION_DDOT></tleParameters></data></segment></body></omm>
<omm id="CCSDS_OMM_VERS" version="2.0">
<header><CREATION_DATE/><ORIGINATOR/></header><body><segment><metadata><OBJECT_NAME>ONEWEB-0431</OBJECT_NAME><OBJECT_ID>2022-012J</OBJECT_ID><CENTER_NAME>EARTH</CENTER_NAME><REF_FRAME>TEME</REF_FRAME><TIME_SYSTEM>UTC</TIME_SYSTEM><MEAN_ELEMENT_THEORY>SGP4</MEAN_ELEMENT_THEORY></metadata><data><meanElements><EPOCH>2025-01-02T08:57:13.194432</EPOCH><MEAN_MOTION>13.10372152</MEAN_MOTION><ECCENTRICITY>.0001538</ECCENTRICITY><INCLINATION>87.8900</INCLINATION><RA_OF_ASC_NODE>142.0010</RA_OF_ASC_NODE><ARG_OF_PERICENTER>127.0510</ARG_OF_PERICENTER><MEAN_ANOMALY>233.0758</MEAN_ANOMALY></meanElements><tleParameters><EPHEMERIS_TYPE>0</EPHEMERIS_TYPE><CLASSIFICATION_TYPE>U</CLASSIFICATION_TYPE><NORAD_CAT_ID>51630</NORAD_CAT_ID><ELEMENT_SET_NO>999</ELEMENT_SET_NO><REV_AT_EPOCH>13982</REV_AT_EPOCH><BSTAR>.18172E-2</BSTAR><MEAN_MOTION_DOT>.647E-5</MEAN_MOTION_DOT><MEAN_MOTION_DDOT>0</MEAN_MOTION_DDOT></tleParameters></data></segment></body></omm>
<omm id="CCSDS_OMM_VERS" version="2.0">
<header><CREATION_DATE/><ORIGINATOR/></header><body><segment><metadata><OBJECT_NAME>ONEWEB-0434</OBJECT_NAME><OBJECT_ID>2022-012K</OBJECT_ID><CENTER_NAME>EARTH</CENTER_NAME><REF_FRAME>TEME</REF_FRAME><TIME_SYSTEM>UTC</TIME_SYSTEM><MEAN_ELEMENT_THEORY>SGP4</MEAN_ELEMENT_THEORY></metadata><data><meanElements><EPOCH>2025-01-01T08:34:32.421216</EPOCH><MEAN_MOTION>13.10378194</MEAN_MOTION><ECCENTRICITY>.0001728</ECCENTRICITY><INCLINATION>87.8915</INCLINATION><RA_OF_ASC_NODE>142.2307</RA_OF_ASC_NODE><ARG_OF_PERICENTER>77.7007</ARG_OF_PERICENTER><MEAN_ANOMALY>282.4314</MEAN_ANOMALY></meanElements><tleParameters><EPHEMERIS_TYPE>0</EPHEMERIS_TYPE><CLASSIFICATION_TYPE>U</CLASSIFICATION_TYPE><NORAD_CAT_ID>51631</NORAD_CAT_ID><ELEMENT_SET_NO>999</ELEMENT_SET_NO><REV_AT_EPOCH>13967</REV_AT_EPOCH><BSTAR>.52936E-3</BSTAR><MEAN_MOTION_DOT>.197E-5</MEAN_MOTION_DOT><MEAN_MOTION_DDOT>0</MEAN_MOTION_DDOT></tleParameters></data></segment></body></omm>

</ndm>
