ONEWEB-0415             
1 51624U 22012C   25001.63784248 -.00000631  00000+0 -18431-2 0  9995
2 51624  87.8905 142.1612 0001610 113.5701 246.5595 13.10374100139672
ONEWEB-0416             
1 51625U 22012D   25001.64945604 -.00000414  00000+0 -12226-2 0  9997
2 51625  87.8913 142.1654 0001516 102.7266 257.4031 13.10375616139713
ONEWEB-0422             
1 51626U 22012E   25002.28170872 -.00000336  00000+0 -89837-3 0  9992
2 51626  87.9097 111.6202 0001065 120.9009 239.2227 13.17651154145177
ONEWEB-0423             
1 51627U 22012F   25002.27495552  .00000110  00000+0  24908-3 0  9993
2 51627  87.9107 111.6256 0001470 102.5779 257.5517 13.17649584143783
ONEWEB-0425             
1 51628U 22012G   25001.35399933 -.00000041  00000+0 -15483-3 0  9991
2 51628  87.8912 142.2006 0001633  87.3293 272.8021 13.10375010139678
ONEWEB-0428             
1 51629U 22012H   25001.63949046 -.00000602  00000+0 -17608-2 0  9992
2 51629  87.8908 142.1631 0001333 111.1971 248.9299 13.10373739139670
ONEWEB-0431             
1 51630U 22012J   25002.37306938  .00000647  00000+0  18172-2 0  9997
2 51630  87.8900 142.0010 0001538 127.0510 233.0758 13.10372152139826
ONEWEB-0434             
1 51631U 22012K   25001.35731969  .00000197  00000+0  52936-3 0  9998
2 51631  87.8915 142.2307 0001728  77.7007 282.4314 13.10378194139678
